ONEWEB-0159             
1 48062U 21025W   26193.32955874  .00000382  00000+0  10117-2 0  9998
2 48062  87.8987 315.2125 0002222 100.3453 259.7927 13.13470046256904
ONEWEB-0164             
1 48063U 21025X   26192.77769064  .00000117  00000+0  28658-3 0  9997
2 48063  87.8992 315.3295 0001913 103.4056 256.7286 13.13469808256818
ONEWEB-0167             
1 48064U 21025Y   26192.80563080  .00000333  00000+0  87787-3 0  9990
2 48064  87.8987 315.3283 0002300 115.2514 244.8854 13.13469938256803
ONEWEB-0166             
1 48065U 21025Z   26192.82847677 -.00000357  00000+0 -10135-2 0  9990
2 48065  87.8988 315.3004 0001993  97.4602 262.6754 13.13469306256886
ONEWEB-0151             
1 48066U 21025AA  26192.83016024 -.00000296  00000+0 -84429-3 0  9996
2 48066  87.8985 315.3150 0001934 103.5657 256.5687 13.13470002256826
ONEWEB-0170             
1 48067U 21025AB  26192.83862324 -.00000239  00000+0 -68959-3 0  9996
2 48067  87.8980 315.3152 0001756 115.3362 244.7949 13.13469587256781
ONEWEB-0168             
1 48068U 21025AC  26193.28045786 -.00000165  00000+0 -48773-3 0  9992
2 48068  87.8984 315.2281 0001995 101.6979 258.4374 13.13468994256858
ONEWEB-0173             
1 48069U 21025AD  26193.27199810 -.00000028  00000+0 -11290-3 0  9992
2 48069  87.8988 315.2298 0002397 110.0952 250.0435 13.13469010257096
ONEWEB-0171             
1 48070U 21025AE  26192.85217339  .00000124  00000+0  30453-3 0  9991
2 48070  87.8975 315.3210 0001964 101.2288 258.9062 13.13470254256850
ONEWEB-0172             
1 48071U 21025AF  26192.83185538 -.00000323  00000+0 -91825-3 0  9998
2 48071  87.8987 315.3169 0002061 102.7342 257.4018 13.13470486257744
ONEWEB-0174             
1 48072U 21025AG  26193.27030878  .00000077  00000+0  17566-3 0  9998
2 48072  87.8986 315.2285 0001995  94.9967 265.1390 13.13469105257129
ONEWEB-0175             
1 48073U 21025AH  26192.84370864 -.00000146  00000+0 -43491-3 0  9998
2 48073  87.8983 315.2986 0002044 108.7473 251.3878 13.13469977256727
ONEWEB-0177             
1 48074U 21025AJ  26193.31262781  .00000068  00000+0  15262-3 0  9996
2 48074  87.8975 315.2245 0002082  97.9557 262.1808 13.13470462256972
ONEWEB-0178             
1 48075U 21025AK  26192.79814931  .00000273  00000+0  71184-3 0  9991
2 48075  87.8973 315.3354 0002159 103.7249 256.4121 13.13470044256950
ONEWEB-0108             
1 48076U 21025AL  26193.29061627 -.00000302  00000+0 -86168-3 0  9997
2 48076  87.8994 315.2189 0001743  96.5698 263.5629 13.13469557256942
ONEWEB-0169             
1 48077U 21025AM  26192.86572202  .00000305  00000+0  79934-3 0  9990
2 48077  87.8979 315.3104 0001994  94.2011 265.9346 13.13469321255542
